{
  "norad_id": 68470,
  "name": "TRANSPORTER-16 OBJECT BG",
  "history": [
    {
      "epoch": "2026-04-14T03:34:56.502912Z",
      "apogee_km": 519.55701024273,
      "perigee_km": 512.4644489414804,
      "latitude_deg": -5.1314639926778556e-05,
      "longitude_deg": 167.471142057217,
      "height_km": 517.2737074108605,
      "semi_major_axis_km": 6894.147729592105,
      "eccentricity": 0.00051439,
      "inclination_deg": 97.4426,
      "raan_deg": 63.5364,
      "arg_perigee_deg": 301.0012,
      "mean_anomaly_deg": 59.0715,
      "mean_motion_rev_day": 15.16637828
    }
  ]
}