{"fetched_at":"2026-04-16T17:13:58Z","count":4884,"tles":[{"name":"TRANSPORTER-16 OBJECT BG","line1":"1 68470U 26067BG  26104.14926508  .00005191  00000+0  26875-3 0  9990","line2":"2 68470  97.4426  63.5364 0005143 301.0012  59.0715 15.16637828  2226","category":"Other"}]}